[
  {
    "OBJECT_NAME": "STARLINK-5649",
    "OBJECT_ID": "23013Z",
    "EPOCH": "2025-11-11T02:34:21.908064",
    "MEAN_MOTION": 15.02537404,
    "ECCENTRICITY": 0.0001519,
    "INCLINATION": 43.0049,
    "RA_OF_ASC_NODE": 224.4933,
    "ARG_OF_PERICENTER": 265.605,
    "MEAN_ANOMALY": 94.4619,
    "EPHEMERIS_TYPE": 0,
    "CLASSIFICATION_TYPE": "U",
    "NORAD_CAT_ID": 55354,
    "ELEMENT_SET_NO": 999,
    "REV_AT_EPOCH": 15387,
    "BSTAR": 5.2887e-06,
    "MEAN_MOTION_DOT": -1.32e-06,
    "MEAN_MOTION_DDOT": 0.0,
    "TLE_LINE1": "1 55354U 23013Z   25315.10719801 -.00000132  00000+0  52887-5 0  9995",
    "TLE_LINE2": "2 55354  43.0049 224.4933 0001519 265.6050  94.4619 15.02537404153879",
    "COMMENT": "Grouped by shell and plane from TLE"
  },
  {
    "OBJECT_NAME": "STARLINK-5647",
    "OBJECT_ID": "23013AA",
    "EPOCH": "2025-11-11T03:55:42.993120",
    "MEAN_MOTION": 15.02541382,
    "ECCENTRICITY": 0.0001195,
    "INCLINATION": 43.0035,
    "RA_OF_ASC_NODE": 224.0434,
    "ARG_OF_PERICENTER": 275.4623,
    "MEAN_ANOMALY": 84.6083,
    "EPHEMERIS_TYPE": 0,
    "CLASSIFICATION_TYPE": "U",
    "NORAD_CAT_ID": 55355,
    "ELEMENT_SET_NO": 999,
    "REV_AT_EPOCH": 15387,
    "BSTAR": 4.8561e-05,
    "MEAN_MOTION_DOT": 4.53e-06,
    "MEAN_MOTION_DDOT": 0.0,
    "TLE_LINE1": "1 55355U 23013AA  25315.16369205  .00000453  00000+0  48561-4 0  9999",
    "TLE_LINE2": "2 55355  43.0035 224.0434 0001195 275.4623  84.6083 15.02541382153878",
    "COMMENT": "Grouped by shell and plane from TLE"
  },
  {
    "OBJECT_NAME": "STARLINK-5651",
    "OBJECT_ID": "23013AC",
    "EPOCH": "2025-11-11T02:21:35.461440",
    "MEAN_MOTION": 15.02535935,
    "ECCENTRICITY": 0.0001315,
    "INCLINATION": 43.0047,
    "RA_OF_ASC_NODE": 224.4231,
    "ARG_OF_PERICENTER": 269.6182,
    "MEAN_ANOMALY": 90.451,
    "EPHEMERIS_TYPE": 0,
    "CLASSIFICATION_TYPE": "U",
    "NORAD_CAT_ID": 55357,
    "ELEMENT_SET_NO": 999,
    "REV_AT_EPOCH": 15387,
    "BSTAR": 2.7479e-05,
    "MEAN_MOTION_DOT": 1.68e-06,
    "MEAN_MOTION_DDOT": 0.0,
    "TLE_LINE1": "1 55357U 23013AC  25315.09832710  .00000168  00000+0  27479-4 0  9997",
    "TLE_LINE2": "2 55357  43.0047 224.4231 0001315 269.6182  90.4510 15.02535935153878",
    "COMMENT": "Grouped by shell and plane from TLE"
  },
  {
    "OBJECT_NAME": "STARLINK-5622",
    "OBJECT_ID": "23013AD",
    "EPOCH": "2025-11-11T02:24:48.424608",
    "MEAN_MOTION": 15.02531117,
    "ECCENTRICITY": 0.0002689,
    "INCLINATION": 43.006,
    "RA_OF_ASC_NODE": 224.4445,
    "ARG_OF_PERICENTER": 301.1355,
    "MEAN_ANOMALY": 58.9224,
    "EPHEMERIS_TYPE": 0,
    "CLASSIFICATION_TYPE": "U",
    "NORAD_CAT_ID": 55358,
    "ELEMENT_SET_NO": 999,
    "REV_AT_EPOCH": 15387,
    "BSTAR": 0.00018436,
    "MEAN_MOTION_DOT": 2.287e-05,
    "MEAN_MOTION_DDOT": 0.0,
    "TLE_LINE1": "1 55358U 23013AD  25315.10056047  .00002287  00000+0  18436-3 0  9997",
    "TLE_LINE2": "2 55358  43.0060 224.4445 0002689 301.1355  58.9224 15.02531117153879",
    "COMMENT": "Grouped by shell and plane from TLE"
  },
  {
    "OBJECT_NAME": "STARLINK-5641",
    "OBJECT_ID": "23013AE",
    "EPOCH": "2025-11-11T02:16:47.756352",
    "MEAN_MOTION": 15.02532288,
    "ECCENTRICITY": 0.0001257,
    "INCLINATION": 43.0036,
    "RA_OF_ASC_NODE": 224.4006,
    "ARG_OF_PERICENTER": 270.7632,
    "MEAN_ANOMALY": 89.3066,
    "EPHEMERIS_TYPE": 0,
    "CLASSIFICATION_TYPE": "U",
    "NORAD_CAT_ID": 55359,
    "ELEMENT_SET_NO": 999,
    "REV_AT_EPOCH": 15387,
    "BSTAR": 0.00012136,
    "MEAN_MOTION_DOT": 1.436e-05,
    "MEAN_MOTION_DDOT": 0.0,
    "TLE_LINE1": "1 55359U 23013AE  25315.09499718  .00001436  00000+0  12136-3 0  9998",
    "TLE_LINE2": "2 55359  43.0036 224.4006 0001257 270.7632  89.3066 15.02532288153877",
    "COMMENT": "Grouped by shell and plane from TLE"
  },
  {
    "OBJECT_NAME": "STARLINK-5627",
    "OBJECT_ID": "23013AK",
    "EPOCH": "2025-11-11T03:49:19.635456",
    "MEAN_MOTION": 15.02535348,
    "ECCENTRICITY": 0.0001268,
    "INCLINATION": 43.0039,
    "RA_OF_ASC_NODE": 224.0204,
    "ARG_OF_PERICENTER": 268.4244,
    "MEAN_ANOMALY": 91.6453,
    "EPHEMERIS_TYPE": 0,
    "CLASSIFICATION_TYPE": "U",
    "NORAD_CAT_ID": 55364,
    "ELEMENT_SET_NO": 999,
    "REV_AT_EPOCH": 15388,
    "BSTAR": 5.0117e-05,
    "MEAN_MOTION_DOT": 4.73e-06,
    "MEAN_MOTION_DDOT": 0.0,
    "TLE_LINE1": "1 55364U 23013AK  25315.15925504  .00000473  00000+0  50117-4 0  9990",
    "TLE_LINE2": "2 55364  43.0039 224.0204 0001268 268.4244  91.6453 15.02535348153884",
    "COMMENT": "Grouped by shell and plane from TLE"
  },
  {
    "OBJECT_NAME": "STARLINK-5862",
    "OBJECT_ID": "23037G",
    "EPOCH": "2025-11-11T04:18:23.383584",
    "MEAN_MOTION": 14.98331314,
    "ECCENTRICITY": 0.0002981,
    "INCLINATION": 70.0006,
    "RA_OF_ASC_NODE": 223.4564,
    "ARG_OF_PERICENTER": 270.3855,
    "MEAN_ANOMALY": 89.6962,
    "EPHEMERIS_TYPE": 0,
    "CLASSIFICATION_TYPE": "U",
    "NORAD_CAT_ID": 55920,
    "ELEMENT_SET_NO": 999,
    "REV_AT_EPOCH": 14622,
    "BSTAR": 0.00035231,
    "MEAN_MOTION_DOT": 4.113e-05,
    "MEAN_MOTION_DDOT": 0.0,
    "TLE_LINE1": "1 55920U 23037G   25315.17943731  .00004113  00000+0  35231-3 0  9992",
    "TLE_LINE2": "2 55920  70.0006 223.4564 0002981 270.3855  89.6962 14.98331314146224",
    "COMMENT": "Grouped by shell and plane from TLE"
  },
  {
    "OBJECT_NAME": "STARLINK-5849",
    "OBJECT_ID": "23037L",
    "EPOCH": "2025-11-11T04:12:22.733568",
    "MEAN_MOTION": 14.9834136,
    "ECCENTRICITY": 0.0002593,
    "INCLINATION": 69.9998,
    "RA_OF_ASC_NODE": 223.4395,
    "ARG_OF_PERICENTER": 269.889,
    "MEAN_ANOMALY": 90.1972,
    "EPHEMERIS_TYPE": 0,
    "CLASSIFICATION_TYPE": "U",
    "NORAD_CAT_ID": 55924,
    "ELEMENT_SET_NO": 999,
    "REV_AT_EPOCH": 14622,
    "BSTAR": 0.00020322000000000002,
    "MEAN_MOTION_DOT": 2.333e-05,
    "MEAN_MOTION_DDOT": 0.0,
    "TLE_LINE1": "1 55924U 23037L   25315.17526312  .00002333  00000+0  20322-3 0  9995",
    "TLE_LINE2": "2 55924  69.9998 223.4395 0002593 269.8890  90.1972 14.98341360146228",
    "COMMENT": "Grouped by shell and plane from TLE"
  },
  {
    "OBJECT_NAME": "STARLINK-5921",
    "OBJECT_ID": "23037N",
    "EPOCH": "2025-11-11T04:00:21.244320",
    "MEAN_MOTION": 14.98340817,
    "ECCENTRICITY": 0.0002876,
    "INCLINATION": 69.9998,
    "RA_OF_ASC_NODE": 223.4121,
    "ARG_OF_PERICENTER": 272.8286,
    "MEAN_ANOMALY": 87.2544,
    "EPHEMERIS_TYPE": 0,
    "CLASSIFICATION_TYPE": "U",
    "NORAD_CAT_ID": 55926,
    "ELEMENT_SET_NO": 999,
    "REV_AT_EPOCH": 14622,
    "BSTAR": 0.00015064,
    "MEAN_MOTION_DOT": 1.705e-05,
    "MEAN_MOTION_DDOT": 0.0,
    "TLE_LINE1": "1 55926U 23037N   25315.16691255  .00001705  00000+0  15064-3 0  9994",
    "TLE_LINE2": "2 55926  69.9998 223.4121 0002876 272.8286  87.2544 14.98340817146222",
    "COMMENT": "Grouped by shell and plane from TLE"
  },
  {
    "OBJECT_NAME": "STARLINK-5896",
    "OBJECT_ID": "23037S",
    "EPOCH": "2025-11-11T03:18:17.054496",
    "MEAN_MOTION": 14.98344592,
    "ECCENTRICITY": 0.0002613,
    "INCLINATION": 70.0008,
    "RA_OF_ASC_NODE": 223.3139,
    "ARG_OF_PERICENTER": 265.6958,
    "MEAN_ANOMALY": 94.3903,
    "EPHEMERIS_TYPE": 0,
    "CLASSIFICATION_TYPE": "U",
    "NORAD_CAT_ID": 55930,
    "ELEMENT_SET_NO": 999,
    "REV_AT_EPOCH": 14622,
    "BSTAR": 2.0987e-05,
    "MEAN_MOTION_DOT": 1.58e-06,
    "MEAN_MOTION_DDOT": 0.0,
    "TLE_LINE1": "1 55930U 23037S   25315.13769739  .00000158  00000+0  20987-4 0  9991",
    "TLE_LINE2": "2 55930  70.0008 223.3139 0002613 265.6958  94.3903 14.98344592146227",
    "COMMENT": "Grouped by shell and plane from TLE"
  },
  {
    "OBJECT_NAME": "STARLINK-5852",
    "OBJECT_ID": "23037V",
    "EPOCH": "2025-11-11T03:54:22.087296",
    "MEAN_MOTION": 14.98332739,
    "ECCENTRICITY": 0.0003031,
    "INCLINATION": 69.9995,
    "RA_OF_ASC_NODE": 223.4,
    "ARG_OF_PERICENTER": 268.1175,
    "MEAN_ANOMALY": 91.9637,
    "EPHEMERIS_TYPE": 0,
    "CLASSIFICATION_TYPE": "U",
    "NORAD_CAT_ID": 55933,
    "ELEMENT_SET_NO": 999,
    "REV_AT_EPOCH": 14622,
    "BSTAR": 0.00012712999999999998,
    "MEAN_MOTION_DOT": 1.424e-05,
    "MEAN_MOTION_DDOT": 0.0,
    "TLE_LINE1": "1 55933U 23037V   25315.16275564  .00001424  00000+0  12713-3 0  9999",
    "TLE_LINE2": "2 55933  69.9995 223.4000 0003031 268.1175  91.9637 14.98332739146221",
    "COMMENT": "Grouped by shell and plane from TLE"
  },
  {
    "OBJECT_NAME": "STARLINK-5927",
    "OBJECT_ID": "23037W",
    "EPOCH": "2025-11-11T03:18:30.936384",
    "MEAN_MOTION": 14.98349188,
    "ECCENTRICITY": 0.0003033,
    "INCLINATION": 69.9998,
    "RA_OF_ASC_NODE": 223.3092,
    "ARG_OF_PERICENTER": 270.1134,
    "MEAN_ANOMALY": 89.9678,
    "EPHEMERIS_TYPE": 0,
    "CLASSIFICATION_TYPE": "U",
    "NORAD_CAT_ID": 55934,
    "ELEMENT_SET_NO": 999,
    "REV_AT_EPOCH": 14622,
    "BSTAR": 0.00026686,
    "MEAN_MOTION_DOT": 3.094e-05,
    "MEAN_MOTION_DDOT": 0.0,
    "TLE_LINE1": "1 55934U 23037W   25315.13785806  .00003094  00000+0  26686-3 0  9991",
    "TLE_LINE2": "2 55934  69.9998 223.3092 0003033 270.1134  89.9678 14.98349188146223",
    "COMMENT": "Grouped by shell and plane from TLE"
  },
  {
    "OBJECT_NAME": "STARLINK-5920",
    "OBJECT_ID": "23037X",
    "EPOCH": "2025-11-11T03:48:19.807776",
    "MEAN_MOTION": 14.98347785,
    "ECCENTRICITY": 0.0002572,
    "INCLINATION": 70.0028,
    "RA_OF_ASC_NODE": 223.3829,
    "ARG_OF_PERICENTER": 266.7422,
    "MEAN_ANOMALY": 93.3443,
    "EPHEMERIS_TYPE": 0,
    "CLASSIFICATION_TYPE": "U",
    "NORAD_CAT_ID": 55935,
    "ELEMENT_SET_NO": 999,
    "REV_AT_EPOCH": 14622,
    "BSTAR": 0.00015315,
    "MEAN_MOTION_DOT": 1.736e-05,
    "MEAN_MOTION_DDOT": 0.0,
    "TLE_LINE1": "1 55935U 23037X   25315.15856259  .00001736  00000+0  15315-3 0  9993",
    "TLE_LINE2": "2 55935  70.0028 223.3829 0002572 266.7422  93.3443 14.98347785146227",
    "COMMENT": "Grouped by shell and plane from TLE"
  }
]